[{"OBJECT_NAME":"SPARK 1","OBJECT_ID":"2016-081C","EPOCH":"2026-03-09T21:21:27.733248","MEAN_MOTION":14.59658645,"ECCENTRICITY":0.00224597,"INCLINATION":98.5453,"RA_OF_ASC_NODE":60.355,"ARG_OF_PERICENTER":266.7681,"MEAN_ANOMALY":93.0948,"EPHEMERIS_TYPE":0,"CLASSIFICATION_TYPE":"U","NORAD_CAT_ID":41900,"ELEMENT_SET_NO":999,"REV_AT_EPOCH":48978,"BSTAR":0.00021503269,"MEAN_MOTION_DOT":9.77e-6,"MEAN_MOTION_DDOT":0},{"OBJECT_NAME":"IRIDIUM 33 DEB","OBJECT_ID":"1997-051AAB","EPOCH":"2026-03-03T00:41:29.644512","MEAN_MOTION":14.51178603,"ECCENTRICITY":0.00239157,"INCLINATION":86.3547,"RA_OF_ASC_NODE":335.0906,"ARG_OF_PERICENTER":175.3826,"MEAN_ANOMALY":184.7605,"EPHEMERIS_TYPE":0,"CLASSIFICATION_TYPE":"U","NORAD_CAT_ID":38474,"ELEMENT_SET_NO":999,"REV_AT_EPOCH":66482,"BSTAR":0.00073375959,"MEAN_MOTION_DOT":2.943e-5,"MEAN_MOTION_DDOT":0}]
